[{"OBJECT_NAME":"STARLINK-32936","OBJECT_ID":"2025-043R","EPOCH":"2026-03-09T07:12:16.072992","MEAN_MOTION":15.27586943,"ECCENTRICITY":0.0001507,"INCLINATION":43.0003,"RA_OF_ASC_NODE":25.2851,"ARG_OF_PERICENTER":258.0147,"MEAN_ANOMALY":102.0536,"EPHEMERIS_TYPE":0,"CLASSIFICATION_TYPE":"U","NORAD_CAT_ID":63147,"ELEMENT_SET_NO":999,"REV_AT_EPOCH":5722,"BSTAR":0.0012892383,"MEAN_MOTION_DOT":0.00035393,"MEAN_MOTION_DDOT":0},{"OBJECT_NAME":"SIMSAT 2","OBJECT_ID":"2000-026B","EPOCH":"2026-03-09T20:25:01.673184","MEAN_MOTION":15.29036787,"ECCENTRICITY":0.00037035,"INCLINATION":86.3514,"RA_OF_ASC_NODE":176.4271,"ARG_OF_PERICENTER":287.9875,"MEAN_ANOMALY":72.0969,"EPHEMERIS_TYPE":0,"CLASSIFICATION_TYPE":"U","NORAD_CAT_ID":26366,"ELEMENT_SET_NO":999,"REV_AT_EPOCH":42803,"BSTAR":0.00013465771,"MEAN_MOTION_DOT":3.833e-5,"MEAN_MOTION_DDOT":0}]
